[{"OBJECT_NAME":"OBJECT H","OBJECT_ID":"2023-091H","EPOCH":"2026-03-09T22:34:46.487712","MEAN_MOTION":15.26380881,"ECCENTRICITY":0.00117854,"INCLINATION":97.5166,"RA_OF_ASC_NODE":131.4381,"ARG_OF_PERICENTER":104.1062,"MEAN_ANOMALY":256.1487,"EPHEMERIS_TYPE":0,"CLASSIFICATION_TYPE":"U","NORAD_CAT_ID":57173,"ELEMENT_SET_NO":999,"REV_AT_EPOCH":14915,"BSTAR":0.00056321781,"MEAN_MOTION_DOT":0.00014617,"MEAN_MOTION_DDOT":0},{"OBJECT_NAME":"STARLINK-30768","OBJECT_ID":"2023-162C","EPOCH":"2026-03-09T22:00:01.999584","MEAN_MOTION":15.26757325,"ECCENTRICITY":0.00010714,"INCLINATION":42.9999,"RA_OF_ASC_NODE":130.5897,"ARG_OF_PERICENTER":254.0999,"MEAN_ANOMALY":302.3228,"EPHEMERIS_TYPE":0,"CLASSIFICATION_TYPE":"U","NORAD_CAT_ID":58120,"ELEMENT_SET_NO":999,"REV_AT_EPOCH":568,"BSTAR":-0.00056375229,"MEAN_MOTION_DOT":-0.00015358,"MEAN_MOTION_DDOT":0}]
